COSMOS 1933             
1 18958U 88020A   26008.33124456  .00004801  00000+0  23872-3 0  9990
2 18958  82.5147 310.6018 0006177  61.3512 298.8342 15.17394666 41074
SL-3 R/B                
1 19046U 88032B   26008.60857876  .00006305  00000+0  30074-3 0  9994
2 19046  97.5113 352.1521 0028462  83.9113 276.5363 15.19079107 42989
SL-16 R/B               
1 19120U 88039B   26008.59359536  .00000017  00000+0  30570-4 0  9998
2 19120  71.0133 195.6189 0019629  70.2330 290.0910 14.19604186949857
COSMOS 1953             
1 19210U 88050A   26006.86628059  .00006843  00000+0  25443-3 0  9993
2 19210  82.5067 220.3632 0011626 349.1631  10.9355 15.27279129 28349
SL-8 R/B                
1 19257U 88053B   26008.65485013  .00000260  00000+0  92860-4 0  9992
2 19257  74.0457 223.1149 0019141  57.1743 359.1879 14.38878829967965
COSMOS 1975             
1 19573U 88093A   26008.52266139  .00008560  00000+0  32189-3 0  9997
2 19573  82.5203 178.0075 0012232  27.4016 332.7865 15.26928787 10229
SL-14 R/B               
1 19574U 88093B   26008.66002054  .00000665  00000+0  73854-4 0  9990
2 19574  82.5316  98.4055 0019500 234.2901 239.3415 14.85586328992120
SL-16 R/B               
1 19650U 88102B   26008.44123901 -.00000022  00000+0  12934-4 0  9997
2 19650  70.9997 278.2621 0011955 105.2620 254.9826 14.16141447918365
INTERCOSMOS 24          
1 20261U 89080A   26008.43649406  .00000549  00000+0  15255-3 0  9996
2 20261  82.6073 143.5989 1188977  72.6194 300.1217 12.59481943659211
SL-14 R/B               
1 20262U 89080C   26008.62590890  .00000322  00000+0  96118-4 0  9997
2 20262  82.5909 211.7570 1229979 322.1393  29.9038 12.50435739652645
DELTA 1 R/B             
1 20323U 89089B   26008.61051231  .00000523  00000+0  13843-3 0  9990
2 20323  97.0737 225.5881 0068023 313.4512  46.1040 14.50601119887022
ARIANE 40 R/B           
1 20443U 90005H   26008.63337379  .00000365  00000+0  12990-3 0  9991
2 20443  98.3202  71.0464 0010545  31.7550 328.4272 14.39822743884165
